[
    {
        "streetLine": "Storgatan 1",
        "postalCode": "123 45",
        "city": "Storstad"
    },
    {
        "streetLine": "Storgatan 12",
        "postalCode": "123 85",
        "city": "Storstad"
    },
    {
        "streetLine": "Östra Storgatan 15",
        "postalCode": "124 55",
        "city": "Storstad"
    },
    {
        "streetLine": "Tunavägen 12",
        "postalCode": "456 78",
        "city": "Ystad"
    },
    {
        "streetLine": "Tunavägen 2",
        "postalCode": "456 77",
        "city": "Ystad"
    },
    {
        "streetLine": "Fältvägen 1",
        "postalCode": "291 39",
        "city": "Kristianstad"
    },
    {
        "streetLine": "Vilansgatan 33",
        "postalCode": "233 56",
        "city": "Kristianstad"
    },
    {
        "streetLine": "Sollentunaholmsv. 9",
        "postalCode": "192 78",
        "city": "Sollentuna"
    },
    {
        "streetLine": "Box 103",
        "postalCode": "597 22",
        "city": "Åtvidaberg"
    },
    {
        "streetLine": "Örsätter, Industrigallerian, Port 7",
        "postalCode": "597 94",
        "city": "Åtvidaberg"
    },
    {
        "streetLine": "Mediavägen 2",
        "postalCode": "135 48",
        "city": "Tyresö"
    }
]
